{"type":"FeatureCollection","metadata":{"source":"OpenStreetMap contributors via Overpass API","license":"ODbL","country":"AD","fetched_at":"2026-06-01T05:58:27.166Z","feature_count":70},"features":[{"type":"Feature","id":"node/13897468354","geometry":{"type":"Point","coordinates":[1.66538,42.56356]},"properties":{"osm_type":"node","osm_id":13897468354,"iso_country":"AD","golf":"pin"}},{"type":"Feature","id":"node/13897468357","geometry":{"type":"Point","coordinates":[1.66884,42.56213]},"properties":{"osm_type":"node","osm_id":13897468357,"iso_country":"AD","golf":"pin"}},{"type":"Feature","id":"node/13897468359","geometry":{"type":"Point","coordinates":[1.67042,42.56035]},"properties":{"osm_type":"node","osm_id":13897468359,"iso_country":"AD","golf":"pin"}},{"type":"Feature","id":"node/13897468361","geometry":{"type":"Point","coordinates":[1.66617,42.56141]},"properties":{"osm_type":"node","osm_id":13897468361,"iso_country":"AD","golf":"pin"}},{"type":"Feature","id":"node/13897468383","geometry":{"type":"Point","coordinates":[1.66384,42.56246]},"properties":{"osm_type":"node","osm_id":13897468383,"iso_country":"AD","golf":"pin"}},{"type":"Feature","id":"node/13897468385","geometry":{"type":"Point","coordinates":[1.66393,42.56351]},"properties":{"osm_type":"node","osm_id":13897468385,"iso_country":"AD","golf":"pin"}},{"type":"Feature","id":"node/13897468388","geometry":{"type":"Point","coordinates":[1.6593,42.56379]},"properties":{"osm_type":"node","osm_id":13897468388,"iso_country":"AD","golf":"pin"}},{"type":"Feature","id":"node/13897468390","geometry":{"type":"Point","coordinates":[1.6578,42.56402]},"properties":{"osm_type":"node","osm_id":13897468390,"iso_country":"AD","golf":"pin"}},{"type":"Feature","id":"node/13897468393","geometry":{"type":"Point","coordinates":[1.66253,42.56331]},"properties":{"osm_type":"node","osm_id":13897468393,"iso_country":"AD","golf":"pin"}},{"type":"Feature","id":"node/13897562251","geometry":{"type":"Point","coordinates":[1.52051,42.57258]},"properties":{"osm_type":"node","osm_id":13897562251,"iso_country":"AD","golf":"pin"}},{"type":"Feature","id":"node/13897562258","geometry":{"type":"Point","coordinates":[1.52077,42.57357]},"properties":{"osm_type":"node","osm_id":13897562258,"iso_country":"AD","golf":"pin"}},{"type":"Feature","id":"node/13897562261","geometry":{"type":"Point","coordinates":[1.52164,42.57307]},"properties":{"osm_type":"node","osm_id":13897562261,"iso_country":"AD","golf":"pin"}},{"type":"Feature","id":"node/13897562264","geometry":{"type":"Point","coordinates":[1.52078,42.57388]},"properties":{"osm_type":"node","osm_id":13897562264,"iso_country":"AD","golf":"pin"}},{"type":"Feature","id":"node/13897562268","geometry":{"type":"Point","coordinates":[1.52092,42.57301]},"properties":{"osm_type":"node","osm_id":13897562268,"iso_country":"AD","golf":"pin"}},{"type":"Feature","id":"node/13897562271","geometry":{"type":"Point","coordinates":[1.51983,42.5737]},"properties":{"osm_type":"node","osm_id":13897562271,"iso_country":"AD","golf":"pin"}},{"type":"Feature","id":"node/13897562274","geometry":{"type":"Point","coordinates":[1.52053,42.57294]},"properties":{"osm_type":"node","osm_id":13897562274,"iso_country":"AD","golf":"pin"}},{"type":"Feature","id":"node/13897562277","geometry":{"type":"Point","coordinates":[1.51995,42.57289]},"properties":{"osm_type":"node","osm_id":13897562277,"iso_country":"AD","golf":"pin"}},{"type":"Feature","id":"node/13897562288","geometry":{"type":"Point","coordinates":[1.51948,42.57362]},"properties":{"osm_type":"node","osm_id":13897562288,"iso_country":"AD","golf":"pin"}},{"type":"Feature","id":"way/334648075","geometry":{"type":"Polygon","coordinates":[[[1.51992,42.57343],[1.51985,42.57339],[1.51994,42.5731],[1.5201,42.57298],[1.52026,42.573],[1.52026,42.57326],[1.51992,42.57343]]]},"properties":{"osm_type":"way","osm_id":334648075,"iso_country":"AD","golf":"lateral_water_hazard"}},{"type":"Feature","id":"way/334648076","geometry":{"type":"Polygon","coordinates":[[[1.521,42.57163],[1.52135,42.57198],[1.52273,42.57262],[1.52205,42.57334],[1.52171,42.57352],[1.52161,42.57379],[1.52045,42.57421],[1.5202,42.5744],[1.51985,42.57422],[1.5197,42.57425],[1.51906,42.57404],[1.51933,42.5735],[1.51933,42.57292],[1.51943,42.5728],[1.52038,42.57234],[1.52062,42.57192],[1.521,42.57163]]]},"properties":{"osm_type":"way","osm_id":334648076,"iso_country":"AD","leisure":"golf_course","name":"Vall d'Ordino Golf Club"}},{"type":"Feature","id":"way/1152679349","geometry":{"type":"Polygon","coordinates":[[[1.5209,42.57354],[1.52088,42.57353],[1.52088,42.57352],[1.52087,42.5735],[1.52088,42.57349],[1.52089,42.57348],[1.52091,42.57348],[1.52093,42.57348],[1.52094,42.57349],[1.52094,42.5735],[1.52094,42.57352],[1.52094,42.57353],[1.52092,42.57354],[1.5209,42.57354]]]},"properties":{"osm_type":"way","osm_id":1152679349,"iso_country":"AD","golf":"bunker"}},{"type":"Feature","id":"way/1152679350","geometry":{"type":"Polygon","coordinates":[[[1.51962,42.57362],[1.5196,42.5736],[1.51959,42.57357],[1.51959,42.57355],[1.51961,42.57353],[1.51965,42.57354],[1.51966,42.57357],[1.51966,42.57359],[1.51965,42.57361],[1.51962,42.57362]]]},"properties":{"osm_type":"way","osm_id":1152679350,"iso_country":"AD","golf":"bunker"}},{"type":"Feature","id":"way/1152679352","geometry":{"type":"Polygon","coordinates":[[[1.52059,42.57239],[1.52078,42.57203],[1.52088,42.57189],[1.52106,42.57179],[1.52131,42.57201],[1.52167,42.57218],[1.52209,42.57235],[1.52175,42.57272],[1.52071,42.57242],[1.52059,42.57239]]]},"properties":{"osm_type":"way","osm_id":1152679352,"iso_country":"AD","golf":"driving_range"}},{"type":"Feature","id":"way/1152679353","geometry":{"type":"Polygon","coordinates":[[[1.52067,42.57268],[1.52066,42.57266],[1.52067,42.57264],[1.52068,42.57263],[1.52069,42.57262],[1.52071,42.57261],[1.52072,42.5726],[1.52074,42.5726],[1.52075,42.57261],[1.52076,42.57262],[1.52076,42.57264],[1.52074,42.57265],[1.52071,42.57266],[1.5207,42.57267],[1.52069,42.57268],[1.52067,42.57268]]]},"properties":{"osm_type":"way","osm_id":1152679353,"iso_country":"AD","golf":"bunker"}},{"type":"Feature","id":"way/1152679354","geometry":{"type":"Polygon","coordinates":[[[1.52051,42.57248],[1.5205,42.57247],[1.52049,42.57246],[1.5205,42.57245],[1.52052,42.57244],[1.52054,42.57244],[1.52056,42.57245],[1.52058,42.57246],[1.52059,42.57247],[1.52058,42.57248],[1.52057,42.57249],[1.52055,42.57249],[1.52053,42.57249],[1.52051,42.57248]]]},"properties":{"osm_type":"way","osm_id":1152679354,"iso_country":"AD","golf":"bunker"}},{"type":"Feature","id":"way/1152679355","geometry":{"type":"Polygon","coordinates":[[[1.5203,42.57266],[1.52027,42.57264],[1.52026,42.57262],[1.52027,42.5726],[1.52029,42.57258],[1.52031,42.57258],[1.52033,42.57259],[1.52035,42.5726],[1.52036,42.57261],[1.52036,42.57263],[1.52035,42.57265],[1.52033,42.57265],[1.5203,42.57266]]]},"properties":{"osm_type":"way","osm_id":1152679355,"iso_country":"AD","golf":"bunker"}},{"type":"Feature","id":"way/1315099407","geometry":{"type":"Polygon","coordinates":[[[1.4885,42.55118],[1.48856,42.55117],[1.4886,42.55122],[1.48856,42.55126],[1.4885,42.55125],[1.4885,42.55123],[1.4885,42.55122],[1.4885,42.55118]]]},"properties":{"osm_type":"way","osm_id":1315099407,"iso_country":"AD","golf":"green"}},{"type":"Feature","id":"way/1524751375","geometry":{"type":"LineString","coordinates":[[1.66863,42.56171],[1.66667,42.56295],[1.66538,42.56356]]},"properties":{"osm_type":"way","osm_id":1524751375,"iso_country":"AD","golf":"hole"}},{"type":"Feature","id":"way/1524751376","geometry":{"type":"LineString","coordinates":[[1.67066,42.56058],[1.66884,42.56213]]},"properties":{"osm_type":"way","osm_id":1524751376,"iso_country":"AD","golf":"hole"}},{"type":"Feature","id":"way/1524751377","geometry":{"type":"LineString","coordinates":[[1.66667,42.56158],[1.67042,42.56035]]},"properties":{"osm_type":"way","osm_id":1524751377,"iso_country":"AD","golf":"hole"}},{"type":"Feature","id":"way/1524751378","geometry":{"type":"LineString","coordinates":[[1.66476,42.56375],[1.66617,42.56141]]},"properties":{"osm_type":"way","osm_id":1524751378,"iso_country":"AD","golf":"hole"}},{"type":"Feature","id":"way/1524751379","geometry":{"type":"Polygon","coordinates":[[[1.66462,42.56329],[1.66453,42.56308],[1.66414,42.56274],[1.66413,42.56222],[1.66519,42.56217],[1.66531,42.56263],[1.66486,42.56317],[1.66462,42.56329]]]},"properties":{"osm_type":"way","osm_id":1524751379,"iso_country":"AD","golf":"driving_range"}},{"type":"Feature","id":"way/1524751380","geometry":{"type":"LineString","coordinates":[[1.66455,42.5638],[1.66384,42.56246]]},"properties":{"osm_type":"way","osm_id":1524751380,"iso_country":"AD","golf":"hole"}},{"type":"Feature","id":"way/1524751381","geometry":{"type":"LineString","coordinates":[[1.66312,42.56225],[1.66393,42.56351]]},"properties":{"osm_type":"way","osm_id":1524751381,"iso_country":"AD","golf":"hole"}},{"type":"Feature","id":"way/1524751382","geometry":{"type":"LineString","coordinates":[[1.66246,42.56249],[1.66041,42.56367],[1.6593,42.56379]]},"properties":{"osm_type":"way","osm_id":1524751382,"iso_country":"AD","golf":"hole"}},{"type":"Feature","id":"way/1524751383","geometry":{"type":"LineString","coordinates":[[1.65925,42.56311],[1.6578,42.56402]]},"properties":{"osm_type":"way","osm_id":1524751383,"iso_country":"AD","golf":"hole"}},{"type":"Feature","id":"way/1524751384","geometry":{"type":"LineString","coordinates":[[1.65687,42.56461],[1.66187,42.56389],[1.66253,42.56331]]},"properties":{"osm_type":"way","osm_id":1524751384,"iso_country":"AD","golf":"hole"}},{"type":"Feature","id":"way/1524751385","geometry":{"type":"Polygon","coordinates":[[[1.66549,42.56359],[1.66535,42.56366],[1.66527,42.56349],[1.66544,42.56346],[1.66549,42.56359]]]},"properties":{"osm_type":"way","osm_id":1524751385,"iso_country":"AD","golf":"green"}},{"type":"Feature","id":"way/1524751386","geometry":{"type":"Polygon","coordinates":[[[1.66568,42.56363],[1.6656,42.56361],[1.66568,42.56357],[1.66568,42.56363]]]},"properties":{"osm_type":"way","osm_id":1524751386,"iso_country":"AD","golf":"bunker"}},{"type":"Feature","id":"way/1524751387","geometry":{"type":"Polygon","coordinates":[[[1.66552,42.5637],[1.66552,42.56371],[1.66552,42.56371],[1.66552,42.56372],[1.66552,42.56372],[1.66551,42.56373],[1.66551,42.56374],[1.6655,42.56374],[1.66549,42.56374],[1.66549,42.56374],[1.66548,42.56375],[1.66543,42.56375],[1.66542,42.56375],[1.66541,42.56375],[1.6654,42.56375],[1.66539,42.56375],[1.66539,42.56375],[1.66538,42.56375],[1.66538,42.56375],[1.66537,42.56375],[1.66537,42.56374],[1.66537,42.56374],[1.66537,42.56374],[1.66537,42.56374],[1.66537,42.56373],[1.66537,42.56373],[1.66538,42.56373],[1.66538,42.56373],[1.66539,42.56373],[1.66539,42.56372],[1.6654,42.56372],[1.66541,42.56372],[1.66542,42.56372],[1.66542,42.56372],[1.66543,42.56372],[1.66543,42.56372],[1.66544,42.56372],[1.66545,42.56372],[1.66546,42.56371],[1.66548,42.5637],[1.66548,42.5637],[1.66549,42.5637],[1.6655,42.5637],[1.66551,42.5637],[1.66551,42.5637],[1.66552,42.5637],[1.66552,42.5637],[1.66552,42.5637],[1.66552,42.5637]]]},"properties":{"osm_type":"way","osm_id":1524751387,"iso_country":"AD","golf":"bunker"}},{"type":"Feature","id":"way/1524751388","geometry":{"type":"Polygon","coordinates":[[[1.6655,42.56337],[1.66549,42.56337],[1.66549,42.56337],[1.66548,42.56338],[1.66548,42.56338],[1.66543,42.56338],[1.66543,42.56338],[1.66542,42.56337],[1.66542,42.56337],[1.66542,42.56337],[1.66542,42.56336],[1.66542,42.56336],[1.66542,42.56335],[1.66542,42.56335],[1.66542,42.56335],[1.66543,42.56334],[1.66543,42.56334],[1.66544,42.56334],[1.66545,42.56334],[1.66545,42.56333],[1.66546,42.56333],[1.66547,42.56333],[1.66547,42.56334],[1.66548,42.56334],[1.66549,42.56334],[1.66549,42.56335],[1.66549,42.56335],[1.6655,42.56335],[1.6655,42.56336],[1.6655,42.56336],[1.6655,42.56337]]]},"properties":{"osm_type":"way","osm_id":1524751388,"iso_country":"AD","golf":"bunker"}},{"type":"Feature","id":"way/1524751390","geometry":{"type":"Polygon","coordinates":[[[1.66682,42.56316],[1.66682,42.56317],[1.66681,42.56317],[1.66681,42.56318],[1.6668,42.56318],[1.66679,42.56319],[1.66678,42.56319],[1.66677,42.5632],[1.66676,42.5632],[1.66674,42.56321],[1.66673,42.56321],[1.66673,42.56322],[1.66672,42.56322],[1.66671,42.56323],[1.66671,42.56323],[1.6667,42.56323],[1.66669,42.56323],[1.66668,42.56323],[1.66667,42.56323],[1.66666,42.56323],[1.66666,42.56322],[1.66666,42.56322],[1.66666,42.56321],[1.66666,42.56321],[1.66666,42.5632],[1.66666,42.5632],[1.66666,42.56319],[1.66667,42.56319],[1.66668,42.56319],[1.66669,42.56319],[1.66669,42.56318],[1.6667,42.56318],[1.66671,42.56318],[1.66671,42.56317],[1.66672,42.56317],[1.66672,42.56317],[1.66672,42.56316],[1.66673,42.56316],[1.66673,42.56315],[1.66673,42.56314],[1.66674,42.56313],[1.66674,42.56313],[1.66675,42.56313],[1.66675,42.56312],[1.66676,42.56312],[1.66677,42.56312],[1.66677,42.56312],[1.66678,42.56312],[1.66678,42.56312],[1.66679,42.56312],[1.6668,42.56312],[1.6668,42.56312],[1.6668,42.56313],[1.66681,42.56313],[1.66681,42.56314],[1.66681,42.56314],[1.66682,42.56315],[1.66682,42.56316],[1.66682,42.56316]]]},"properties":{"osm_type":"way","osm_id":1524751390,"iso_country":"AD","golf":"bunker"}},{"type":"Feature","id":"way/1524751391","geometry":{"type":"Polygon","coordinates":[[[1.6627,42.56337],[1.66241,42.56335],[1.66236,42.56325],[1.66262,42.56325],[1.6627,42.56337]]]},"properties":{"osm_type":"way","osm_id":1524751391,"iso_country":"AD","golf":"green"}},{"type":"Feature","id":"way/1524751393","geometry":{"type":"Polygon","coordinates":[[[1.65947,42.56379],[1.65928,42.56388],[1.65912,42.5638],[1.6593,42.56371],[1.65947,42.56379]]]},"properties":{"osm_type":"way","osm_id":1524751393,"iso_country":"AD","golf":"green"}},{"type":"Feature","id":"way/1524751394","geometry":{"type":"Polygon","coordinates":[[[1.65792,42.56396],[1.65785,42.5641],[1.65764,42.56409],[1.65781,42.56391],[1.65792,42.56396]]]},"properties":{"osm_type":"way","osm_id":1524751394,"iso_country":"AD","golf":"green"}},{"type":"Feature","id":"way/1524751395","geometry":{"type":"Polygon","coordinates":[[[1.66402,42.56361],[1.66382,42.56356],[1.66383,42.56342],[1.66401,42.56342],[1.66402,42.56361]]]},"properties":{"osm_type":"way","osm_id":1524751395,"iso_country":"AD","golf":"green"}},{"type":"Feature","id":"way/1524751396","geometry":{"type":"Polygon","coordinates":[[[1.66632,42.56134],[1.66619,42.5615],[1.66596,42.56139],[1.66618,42.5613],[1.66632,42.56134]]]},"properties":{"osm_type":"way","osm_id":1524751396,"iso_country":"AD","golf":"green"}},{"type":"Feature","id":"way/1524751397","geometry":{"type":"Polygon","coordinates":[[[1.67051,42.56041],[1.67036,42.56049],[1.6703,42.56029],[1.67051,42.56027],[1.67051,42.56041]]]},"properties":{"osm_type":"way","osm_id":1524751397,"iso_country":"AD","golf":"green"}},{"type":"Feature","id":"way/1524751398","geometry":{"type":"Polygon","coordinates":[[[1.66897,42.56214],[1.66884,42.56225],[1.66871,42.56208],[1.66882,42.56203],[1.66897,42.56214]]]},"properties":{"osm_type":"way","osm_id":1524751398,"iso_country":"AD","golf":"green"}},{"type":"Feature","id":"way/1524751399","geometry":{"type":"Polygon","coordinates":[[[1.664,42.56251],[1.6637,42.56247],[1.66396,42.56236],[1.664,42.56251]]]},"properties":{"osm_type":"way","osm_id":1524751399,"iso_country":"AD","golf":"green"}},{"type":"Feature","id":"way/1524751401","geometry":{"type":"Polygon","coordinates":[[[1.66255,42.56349],[1.66254,42.5635],[1.66254,42.56351],[1.66255,42.56352],[1.66257,42.56353],[1.66258,42.56352],[1.66259,42.56352],[1.6626,42.56351],[1.6626,42.5635],[1.66259,42.56349],[1.66257,42.56348],[1.66256,42.56349],[1.66255,42.56349]]]},"properties":{"osm_type":"way","osm_id":1524751401,"iso_country":"AD","golf":"bunker"}},{"type":"Feature","id":"way/1524765738","geometry":{"type":"LineString","coordinates":[[1.5216,42.57271],[1.52051,42.57258]]},"properties":{"osm_type":"way","osm_id":1524765738,"iso_country":"AD","golf":"hole"}},{"type":"Feature","id":"way/1524765739","geometry":{"type":"LineString","coordinates":[[1.5214,42.57286],[1.52051,42.57258]]},"properties":{"osm_type":"way","osm_id":1524765739,"iso_country":"AD","golf":"hole"}},{"type":"Feature","id":"way/1524765740","geometry":{"type":"LineString","coordinates":[[1.52134,42.57292],[1.52077,42.57357]]},"properties":{"osm_type":"way","osm_id":1524765740,"iso_country":"AD","golf":"hole"}},{"type":"Feature","id":"way/1524765741","geometry":{"type":"LineString","coordinates":[[1.52168,42.57272],[1.52077,42.57357]]},"properties":{"osm_type":"way","osm_id":1524765741,"iso_country":"AD","golf":"hole"}},{"type":"Feature","id":"way/1524765742","geometry":{"type":"LineString","coordinates":[[1.52096,42.5736],[1.52164,42.57307]]},"properties":{"osm_type":"way","osm_id":1524765742,"iso_country":"AD","golf":"hole"}},{"type":"Feature","id":"way/1524765743","geometry":{"type":"LineString","coordinates":[[1.52134,42.57365],[1.52164,42.57307]]},"properties":{"osm_type":"way","osm_id":1524765743,"iso_country":"AD","golf":"hole"}},{"type":"Feature","id":"way/1524765744","geometry":{"type":"LineString","coordinates":[[1.51994,42.5742],[1.52078,42.57388]]},"properties":{"osm_type":"way","osm_id":1524765744,"iso_country":"AD","golf":"hole"}},{"type":"Feature","id":"way/1524765745","geometry":{"type":"LineString","coordinates":[[1.5202,42.57436],[1.52078,42.57388]]},"properties":{"osm_type":"way","osm_id":1524765745,"iso_country":"AD","golf":"hole"}},{"type":"Feature","id":"way/1524765746","geometry":{"type":"LineString","coordinates":[[1.52006,42.57381],[1.52092,42.57301]]},"properties":{"osm_type":"way","osm_id":1524765746,"iso_country":"AD","golf":"hole"}},{"type":"Feature","id":"way/1524765747","geometry":{"type":"LineString","coordinates":[[1.52021,42.57372],[1.52092,42.57301]]},"properties":{"osm_type":"way","osm_id":1524765747,"iso_country":"AD","golf":"hole"}},{"type":"Feature","id":"way/1524765748","geometry":{"type":"LineString","coordinates":[[1.52038,42.57314],[1.51983,42.5737]]},"properties":{"osm_type":"way","osm_id":1524765748,"iso_country":"AD","golf":"hole"}},{"type":"Feature","id":"way/1524765749","geometry":{"type":"LineString","coordinates":[[1.52023,42.57298],[1.51983,42.5737]]},"properties":{"osm_type":"way","osm_id":1524765749,"iso_country":"AD","golf":"hole"}},{"type":"Feature","id":"way/1524765750","geometry":{"type":"LineString","coordinates":[[1.52014,42.57264],[1.52053,42.57294]]},"properties":{"osm_type":"way","osm_id":1524765750,"iso_country":"AD","golf":"hole"}},{"type":"Feature","id":"way/1524765751","geometry":{"type":"LineString","coordinates":[[1.51976,42.5727],[1.52053,42.57294]]},"properties":{"osm_type":"way","osm_id":1524765751,"iso_country":"AD","golf":"hole"}},{"type":"Feature","id":"way/1524765752","geometry":{"type":"LineString","coordinates":[[1.51972,42.5736],[1.51995,42.57289]]},"properties":{"osm_type":"way","osm_id":1524765752,"iso_country":"AD","golf":"hole"}},{"type":"Feature","id":"way/1524765753","geometry":{"type":"LineString","coordinates":[[1.5197,42.57345],[1.51995,42.57289]]},"properties":{"osm_type":"way","osm_id":1524765753,"iso_country":"AD","golf":"hole"}},{"type":"Feature","id":"way/1524765754","geometry":{"type":"LineString","coordinates":[[1.51964,42.57278],[1.51948,42.57362]]},"properties":{"osm_type":"way","osm_id":1524765754,"iso_country":"AD","golf":"hole"}},{"type":"Feature","id":"way/1524765755","geometry":{"type":"LineString","coordinates":[[1.51949,42.57293],[1.51948,42.57362]]},"properties":{"osm_type":"way","osm_id":1524765755,"iso_country":"AD","golf":"hole"}},{"type":"Feature","id":"way/1524767162","geometry":{"type":"Polygon","coordinates":[[[1.4938,42.55846],[1.49408,42.55832],[1.49368,42.55726],[1.49321,42.55666],[1.49108,42.55464],[1.48979,42.55327],[1.48954,42.55351],[1.49013,42.55381],[1.49072,42.55474],[1.49126,42.55515],[1.49136,42.55542],[1.49164,42.55573],[1.49234,42.55625],[1.4933,42.55745],[1.4938,42.55846]]]},"properties":{"osm_type":"way","osm_id":1524767162,"iso_country":"AD","leisure":"golf_course"}}]}