{"type":"FeatureCollection","metadata":{"source":"OpenStreetMap contributors via Overpass API","license":"ODbL","country":"MD","fetched_at":"2026-07-06T06:09:29.789Z","feature_count":9},"features":[{"type":"Feature","id":"way/1350904083","geometry":{"type":"Polygon","coordinates":[[[29.06963,46.91673],[29.0685,46.91696],[29.06877,46.91776],[29.06632,46.91791],[29.06487,46.91788],[29.0648,46.91841],[29.06585,46.91882],[29.06722,46.91882],[29.06742,46.91874],[29.06755,46.91849],[29.06774,46.91849],[29.06793,46.91859],[29.06817,46.91902],[29.06991,46.9187],[29.0712,46.91774],[29.06963,46.91673]]]},"properties":{"osm_type":"way","osm_id":1350904083,"iso_country":"MD","leisure":"golf_course","name":"Merops Park Golf Club / Merops Park Golf Academy"}},{"type":"Feature","id":"way/1350904091","geometry":{"type":"Polygon","coordinates":[[[29.06704,46.91824],[29.06715,46.91816],[29.06701,46.91815],[29.06704,46.91824]]]},"properties":{"osm_type":"way","osm_id":1350904091,"iso_country":"MD","golf":"green"}},{"type":"Feature","id":"way/1350904092","geometry":{"type":"Polygon","coordinates":[[[29.06518,46.91805],[29.06494,46.91795],[29.06498,46.91804],[29.06518,46.91805]]]},"properties":{"osm_type":"way","osm_id":1350904092,"iso_country":"MD","golf":"green"}},{"type":"Feature","id":"way/1350904093","geometry":{"type":"Polygon","coordinates":[[[29.06835,46.9184],[29.06843,46.9184],[29.06847,46.91839],[29.06852,46.91839],[29.06854,46.91838],[29.06855,46.91838],[29.06855,46.91837],[29.06855,46.91836],[29.06855,46.91836],[29.0685,46.91834],[29.06849,46.91834],[29.06847,46.91834],[29.06846,46.91834],[29.06844,46.91835],[29.06843,46.91835],[29.06841,46.91835],[29.06837,46.91835],[29.06836,46.91836],[29.06834,46.91836],[29.06833,46.91837],[29.06832,46.91838],[29.06832,46.91839],[29.06833,46.91839],[29.06833,46.9184],[29.06835,46.9184]]]},"properties":{"osm_type":"way","osm_id":1350904093,"iso_country":"MD","golf":"bunker"}},{"type":"Feature","id":"way/1350904094","geometry":{"type":"Polygon","coordinates":[[[29.06829,46.91847],[29.06853,46.91851],[29.06836,46.91856],[29.06829,46.91847]]]},"properties":{"osm_type":"way","osm_id":1350904094,"iso_country":"MD","golf":"green"}},{"type":"Feature","id":"way/1524447606","geometry":{"type":"Polygon","coordinates":[[[29.06562,46.91837],[29.06512,46.91831],[29.06506,46.91823],[29.06519,46.91816],[29.06622,46.91808],[29.06652,46.91818],[29.06651,46.91829],[29.06637,46.91836],[29.06562,46.91837]]]},"properties":{"osm_type":"way","osm_id":1524447606,"iso_country":"MD","golf":"rough"}},{"type":"Feature","id":"way/1524447608","geometry":{"type":"Polygon","coordinates":[[[29.06885,46.91829],[29.06888,46.91829],[29.06875,46.91779],[29.06873,46.9178],[29.06885,46.91829]]]},"properties":{"osm_type":"way","osm_id":1524447608,"iso_country":"MD","golf":"tee"}},{"type":"Feature","id":"way/1524447609","geometry":{"type":"Polygon","coordinates":[[[29.06481,46.9184],[29.06487,46.9184],[29.06487,46.91836],[29.06482,46.91836],[29.06481,46.9184]]]},"properties":{"osm_type":"way","osm_id":1524447609,"iso_country":"MD","golf":"tee"}},{"type":"Feature","id":"way/1528101842","geometry":{"type":"Polygon","coordinates":[[[28.93605,47.09823],[28.93591,47.09817],[28.93571,47.09829],[28.93516,47.09914],[28.93482,47.09946],[28.93384,47.09987],[28.933,47.10035],[28.93309,47.10047],[28.93307,47.10082],[28.93348,47.10096],[28.93366,47.10115],[28.93034,47.10362],[28.93092,47.10443],[28.93176,47.10525],[28.93229,47.10489],[28.93334,47.1047],[28.9336,47.10453],[28.93358,47.10435],[28.9358,47.10354],[28.93567,47.10337],[28.93525,47.10346],[28.93476,47.10223],[28.93431,47.10145],[28.93488,47.10038],[28.93566,47.09935],[28.93607,47.09852],[28.93605,47.09823]]]},"properties":{"osm_type":"way","osm_id":1528101842,"iso_country":"MD","leisure":"golf_course","name":"Dream Valley Golf & Country Club"}}]}