{"type":"FeatureCollection","metadata":{"source":"OpenStreetMap contributors via Overpass API","license":"ODbL","country":"ME","fetched_at":"2026-08-31T11:23:52.408Z","feature_count":183},"features":[{"type":"Feature","id":"node/13895748051","geometry":{"type":"Point","coordinates":[18.6591,42.38901]},"properties":{"osm_type":"node","osm_id":13895748051,"iso_country":"ME","golf":"pin"}},{"type":"Feature","id":"node/13895748054","geometry":{"type":"Point","coordinates":[18.66388,42.39148]},"properties":{"osm_type":"node","osm_id":13895748054,"iso_country":"ME","golf":"pin"}},{"type":"Feature","id":"node/13895748056","geometry":{"type":"Point","coordinates":[18.66634,42.39335]},"properties":{"osm_type":"node","osm_id":13895748056,"iso_country":"ME","golf":"pin"}},{"type":"Feature","id":"node/14090743632","geometry":{"type":"Point","coordinates":[19.46812,42.85868]},"properties":{"osm_type":"node","osm_id":14090743632,"iso_country":"ME","golf":"tee"}},{"type":"Feature","id":"node/14090743634","geometry":{"type":"Point","coordinates":[19.46586,42.85973]},"properties":{"osm_type":"node","osm_id":14090743634,"iso_country":"ME","golf":"pin"}},{"type":"Feature","id":"node/14090743927","geometry":{"type":"Point","coordinates":[19.46735,42.8593]},"properties":{"osm_type":"node","osm_id":14090743927,"iso_country":"ME","golf":"tee"}},{"type":"Feature","id":"node/14090743929","geometry":{"type":"Point","coordinates":[19.46779,42.86148]},"properties":{"osm_type":"node","osm_id":14090743929,"iso_country":"ME","golf":"pin"}},{"type":"Feature","id":"node/14090743938","geometry":{"type":"Point","coordinates":[19.4685,42.86182]},"properties":{"osm_type":"node","osm_id":14090743938,"iso_country":"ME","golf":"tee"}},{"type":"Feature","id":"node/14090743940","geometry":{"type":"Point","coordinates":[19.4681,42.85952]},"properties":{"osm_type":"node","osm_id":14090743940,"iso_country":"ME","golf":"pin"}},{"type":"Feature","id":"node/14090743945","geometry":{"type":"Point","coordinates":[19.46599,42.86087]},"properties":{"osm_type":"node","osm_id":14090743945,"iso_country":"ME","golf":"tee"}},{"type":"Feature","id":"node/14090743946","geometry":{"type":"Point","coordinates":[19.46627,42.86179]},"properties":{"osm_type":"node","osm_id":14090743946,"iso_country":"ME","golf":"pin"}},{"type":"Feature","id":"node/14090743955","geometry":{"type":"Point","coordinates":[19.46343,42.85995]},"properties":{"osm_type":"node","osm_id":14090743955,"iso_country":"ME","golf":"tee"}},{"type":"Feature","id":"node/14090743957","geometry":{"type":"Point","coordinates":[19.46614,42.86052]},"properties":{"osm_type":"node","osm_id":14090743957,"iso_country":"ME","golf":"pin"}},{"type":"Feature","id":"node/14090743990","geometry":{"type":"Point","coordinates":[19.46838,42.86214]},"properties":{"osm_type":"node","osm_id":14090743990,"iso_country":"ME","golf":"tee"}},{"type":"Feature","id":"node/14090743992","geometry":{"type":"Point","coordinates":[19.47185,42.86173]},"properties":{"osm_type":"node","osm_id":14090743992,"iso_country":"ME","golf":"pin"}},{"type":"Feature","id":"node/14090744039","geometry":{"type":"Point","coordinates":[19.46904,42.85974]},"properties":{"osm_type":"node","osm_id":14090744039,"iso_country":"ME","golf":"tee"}},{"type":"Feature","id":"node/14090744040","geometry":{"type":"Point","coordinates":[19.46911,42.86143]},"properties":{"osm_type":"node","osm_id":14090744040,"iso_country":"ME","golf":"pin"}},{"type":"Feature","id":"node/14090744045","geometry":{"type":"Point","coordinates":[19.46696,42.86224]},"properties":{"osm_type":"node","osm_id":14090744045,"iso_country":"ME","golf":"tee"}},{"type":"Feature","id":"node/14090744047","geometry":{"type":"Point","coordinates":[19.46665,42.85967]},"properties":{"osm_type":"node","osm_id":14090744047,"iso_country":"ME","golf":"pin"}},{"type":"Feature","id":"node/14090744056","geometry":{"type":"Point","coordinates":[19.47265,42.86162]},"properties":{"osm_type":"node","osm_id":14090744056,"iso_country":"ME","golf":"tee"}},{"type":"Feature","id":"node/14090744059","geometry":{"type":"Point","coordinates":[19.46959,42.85922]},"properties":{"osm_type":"node","osm_id":14090744059,"iso_country":"ME","golf":"pin"}},{"type":"Feature","id":"node/14092690169","geometry":{"type":"Point","coordinates":[18.66596,42.39405]},"properties":{"osm_type":"node","osm_id":14092690169,"iso_country":"ME","golf":"tee"}},{"type":"Feature","id":"way/1524567143","geometry":{"type":"LineString","coordinates":[[18.6621,42.39142],[18.65974,42.38995],[18.65921,42.38917],[18.6591,42.38901]]},"properties":{"osm_type":"way","osm_id":1524567143,"iso_country":"ME","golf":"hole"}},{"type":"Feature","id":"way/1524567144","geometry":{"type":"LineString","coordinates":[[18.65969,42.38871],[18.66212,42.3905],[18.66388,42.39148]]},"properties":{"osm_type":"way","osm_id":1524567144,"iso_country":"ME","golf":"hole"}},{"type":"Feature","id":"way/1524567145","geometry":{"type":"LineString","coordinates":[[18.66489,42.39228],[18.66634,42.39335]]},"properties":{"osm_type":"way","osm_id":1524567145,"iso_country":"ME","golf":"hole"}},{"type":"Feature","id":"way/1524567146","geometry":{"type":"Polygon","coordinates":[[[18.66218,42.39321],[18.66112,42.39473],[18.66094,42.39482],[18.66074,42.39494],[18.66045,42.39497],[18.66023,42.39497],[18.66007,42.39489],[18.65993,42.39478],[18.65991,42.3946],[18.65999,42.39444],[18.66044,42.39393],[18.66127,42.39277],[18.66218,42.39321]]]},"properties":{"osm_type":"way","osm_id":1524567146,"iso_country":"ME","golf":"driving_range"}},{"type":"Feature","id":"way/1524567147","geometry":{"type":"Polygon","coordinates":[[[18.66225,42.39308],[18.66215,42.39318],[18.6613,42.39272],[18.66141,42.39265],[18.66225,42.39308]]]},"properties":{"osm_type":"way","osm_id":1524567147,"iso_country":"ME","golf":"tee"}},{"type":"Feature","id":"way/1524567148","geometry":{"type":"Polygon","coordinates":[[[18.66248,42.39285],[18.66235,42.39291],[18.66196,42.39272],[18.66212,42.39266],[18.66244,42.39275],[18.66248,42.39285]]]},"properties":{"osm_type":"way","osm_id":1524567148,"iso_country":"ME","golf":"green"}},{"type":"Feature","id":"way/1524567149","geometry":{"type":"Polygon","coordinates":[[[18.66129,42.39252],[18.66122,42.39262],[18.66113,42.39249],[18.66129,42.39252]]]},"properties":{"osm_type":"way","osm_id":1524567149,"iso_country":"ME","golf":"bunker"}},{"type":"Feature","id":"way/1524567150","geometry":{"type":"Polygon","coordinates":[[[18.66114,42.3926],[18.66109,42.39272],[18.6609,42.39272],[18.661,42.39257],[18.66114,42.3926]]]},"properties":{"osm_type":"way","osm_id":1524567150,"iso_country":"ME","golf":"green"}},{"type":"Feature","id":"way/1524567151","geometry":{"type":"Polygon","coordinates":[[[18.66152,42.39113],[18.66141,42.39108],[18.66145,42.39104],[18.66156,42.39109],[18.66152,42.39113]]]},"properties":{"osm_type":"way","osm_id":1524567151,"iso_country":"ME","golf":"tee"}},{"type":"Feature","id":"way/1524567152","geometry":{"type":"Polygon","coordinates":[[[18.66183,42.39132],[18.6617,42.39123],[18.66175,42.39119],[18.66188,42.39127],[18.66183,42.39132]]]},"properties":{"osm_type":"way","osm_id":1524567152,"iso_country":"ME","golf":"tee"}},{"type":"Feature","id":"way/1524567153","geometry":{"type":"Polygon","coordinates":[[[18.66212,42.39147],[18.66217,42.39143],[18.66205,42.39136],[18.662,42.3914],[18.66212,42.39147]]]},"properties":{"osm_type":"way","osm_id":1524567153,"iso_country":"ME","golf":"tee"}},{"type":"Feature","id":"way/1524567154","geometry":{"type":"Polygon","coordinates":[[[18.66116,42.391],[18.66105,42.39094],[18.66111,42.39089],[18.66121,42.39095],[18.66116,42.391]]]},"properties":{"osm_type":"way","osm_id":1524567154,"iso_country":"ME","golf":"tee"}},{"type":"Feature","id":"way/1524567155","geometry":{"type":"Polygon","coordinates":[[[18.65995,42.38974],[18.6598,42.38975],[18.65975,42.38964],[18.65995,42.38974]]]},"properties":{"osm_type":"way","osm_id":1524567155,"iso_country":"ME","golf":"bunker"}},{"type":"Feature","id":"way/1524567156","geometry":{"type":"Polygon","coordinates":[[[18.65916,42.38883],[18.65929,42.38897],[18.6591,42.38887],[18.65916,42.38883]]]},"properties":{"osm_type":"way","osm_id":1524567156,"iso_country":"ME","golf":"bunker"}},{"type":"Feature","id":"way/1524567157","geometry":{"type":"Polygon","coordinates":[[[18.65986,42.39027],[18.65958,42.39015],[18.6596,42.39006],[18.65986,42.39027]]]},"properties":{"osm_type":"way","osm_id":1524567157,"iso_country":"ME","golf":"bunker"}},{"type":"Feature","id":"way/1524567158","geometry":{"type":"Polygon","coordinates":[[[18.66053,42.38978],[18.6606,42.38973],[18.66071,42.38982],[18.66065,42.38986],[18.66061,42.38984],[18.66053,42.38978]]]},"properties":{"osm_type":"way","osm_id":1524567158,"iso_country":"ME","golf":"tee"}},{"type":"Feature","id":"way/1524567159","geometry":{"type":"Polygon","coordinates":[[[18.6601,42.38924],[18.66003,42.38919],[18.66,42.38915],[18.66008,42.38909],[18.66019,42.38919],[18.6601,42.38924]]]},"properties":{"osm_type":"way","osm_id":1524567159,"iso_country":"ME","golf":"tee"}},{"type":"Feature","id":"way/1524567160","geometry":{"type":"Polygon","coordinates":[[[18.6597,42.38876],[18.65961,42.38871],[18.65968,42.38865],[18.65976,42.3887],[18.6597,42.38876]]]},"properties":{"osm_type":"way","osm_id":1524567160,"iso_country":"ME","golf":"tee"}},{"type":"Feature","id":"way/1524567161","geometry":{"type":"Polygon","coordinates":[[[18.65992,42.38897],[18.65976,42.38886],[18.65984,42.3888],[18.65999,42.38891],[18.65992,42.38897]]]},"properties":{"osm_type":"way","osm_id":1524567161,"iso_country":"ME","golf":"tee"}},{"type":"Feature","id":"way/1524567162","geometry":{"type":"LineString","coordinates":[[18.66139,42.39239],[18.66199,42.39192],[18.66212,42.39154],[18.66135,42.39109],[18.66127,42.39088],[18.66102,42.3907],[18.66091,42.39035],[18.65972,42.38932],[18.6593,42.38872],[18.65952,42.38866],[18.65992,42.38901],[18.6603,42.38965],[18.66178,42.39072],[18.66308,42.39128],[18.66386,42.39183],[18.66425,42.39189],[18.66477,42.39214],[18.66484,42.39251],[18.66616,42.39359],[18.66616,42.39374]]},"properties":{"osm_type":"way","osm_id":1524567162,"iso_country":"ME","golf":"cartpath"}},{"type":"Feature","id":"way/1524567163","geometry":{"type":"Polygon","coordinates":[[[18.66214,42.39079],[18.66186,42.39072],[18.66176,42.39057],[18.66204,42.39065],[18.66214,42.39079]]]},"properties":{"osm_type":"way","osm_id":1524567163,"iso_country":"ME","golf":"bunker"}},{"type":"Feature","id":"way/1524567164","geometry":{"type":"Polygon","coordinates":[[[18.664,42.39158],[18.66374,42.39149],[18.66375,42.39133],[18.66387,42.39134],[18.664,42.39158]]]},"properties":{"osm_type":"way","osm_id":1524567164,"iso_country":"ME","golf":"green"}},{"type":"Feature","id":"way/1524567165","geometry":{"type":"Polygon","coordinates":[[[18.66404,42.3916],[18.66405,42.3916],[18.66406,42.39161],[18.66406,42.39162],[18.66406,42.39163],[18.66406,42.39164],[18.66405,42.39165],[18.66405,42.39166],[18.66404,42.39166],[18.66403,42.39166],[18.66402,42.39166],[18.66401,42.39166],[18.664,42.39166],[18.66398,42.39165],[18.66397,42.39164],[18.66397,42.39164],[18.66397,42.39163],[18.66397,42.39163],[18.66398,42.39162],[18.664,42.3916],[18.66401,42.39159],[18.66402,42.39159],[18.66403,42.39159],[18.66403,42.39159],[18.66404,42.3916]]]},"properties":{"osm_type":"way","osm_id":1524567165,"iso_country":"ME","golf":"bunker"}},{"type":"Feature","id":"way/1524567166","geometry":{"type":"Polygon","coordinates":[[[18.66388,42.39124],[18.66388,42.39125],[18.66388,42.39125],[18.66387,42.39126],[18.66387,42.39126],[18.66386,42.39126],[18.66386,42.39126],[18.66385,42.39126],[18.66385,42.39126],[18.66384,42.39126],[18.66383,42.39126],[18.66382,42.39126],[18.66382,42.39126],[18.66381,42.39125],[18.6638,42.39125],[18.6638,42.39124],[18.6638,42.39124],[18.6638,42.39123],[18.6638,42.39123],[18.6638,42.39122],[18.66381,42.39122],[18.66381,42.39122],[18.66381,42.39122],[18.66382,42.39122],[18.66382,42.39122],[18.66383,42.39122],[18.66384,42.39122],[18.66384,42.39122],[18.66385,42.39122],[18.66385,42.39122],[18.66386,42.39122],[18.66386,42.39122],[18.66387,42.39122],[18.66387,42.39122],[18.66388,42.39122],[18.66388,42.39123],[18.66388,42.39123],[18.66388,42.39123],[18.66388,42.39124],[18.66388,42.39124]]]},"properties":{"osm_type":"way","osm_id":1524567166,"iso_country":"ME","golf":"bunker"}},{"type":"Feature","id":"way/1524567167","geometry":{"type":"Polygon","coordinates":[[[18.66369,42.39141],[18.66369,42.39141],[18.66369,42.39141],[18.66368,42.39141],[18.66368,42.39141],[18.66367,42.39141],[18.66366,42.39141],[18.66365,42.39141],[18.66365,42.39141],[18.66364,42.3914],[18.66364,42.3914],[18.66364,42.3914],[18.66364,42.39139],[18.66363,42.39139],[18.66364,42.39139],[18.66364,42.39138],[18.66364,42.39138],[18.66364,42.39138],[18.66364,42.39137],[18.66364,42.39137],[18.66364,42.39136],[18.66364,42.39136],[18.66364,42.39135],[18.66365,42.39135],[18.66365,42.39135],[18.66366,42.39134],[18.66367,42.39134],[18.66367,42.39134],[18.66367,42.39134],[18.66368,42.39134],[18.66368,42.39135],[18.66369,42.39136],[18.6637,42.39136],[18.6637,42.39137],[18.6637,42.39137],[18.6637,42.39138],[18.6637,42.39138],[18.6637,42.39139],[18.6637,42.39139],[18.6637,42.3914],[18.6637,42.3914],[18.6637,42.3914],[18.66369,42.39141]]]},"properties":{"osm_type":"way","osm_id":1524567167,"iso_country":"ME","golf":"bunker"}},{"type":"Feature","id":"way/1524567168","geometry":{"type":"Polygon","coordinates":[[[18.66624,42.39334],[18.66623,42.39335],[18.66623,42.39335],[18.66622,42.39335],[18.66621,42.39335],[18.66621,42.39335],[18.6662,42.39335],[18.66619,42.39334],[18.66619,42.39334],[18.66618,42.39333],[18.66618,42.39332],[18.66618,42.39332],[18.66618,42.39331],[18.66618,42.3933],[18.66618,42.3933],[18.66619,42.3933],[18.66619,42.39329],[18.6662,42.39329],[18.66621,42.39329],[18.66621,42.39329],[18.66622,42.39329],[18.66623,42.3933],[18.66623,42.3933],[18.66624,42.3933],[18.66624,42.39331],[18.66624,42.39331],[18.66625,42.39332],[18.66625,42.39332],[18.66625,42.39333],[18.66624,42.39333],[18.66624,42.39334],[18.66624,42.39334]]]},"properties":{"osm_type":"way","osm_id":1524567168,"iso_country":"ME","golf":"bunker"}},{"type":"Feature","id":"way/1524567176","geometry":{"type":"LineString","coordinates":[[18.66139,42.39239],[18.66137,42.39242],[18.66137,42.39245],[18.66138,42.39249],[18.66143,42.39257],[18.66147,42.39261],[18.66153,42.39264],[18.66178,42.39274],[18.66183,42.39276],[18.66192,42.39281],[18.66209,42.39289],[18.66234,42.39298]]},"properties":{"osm_type":"way","osm_id":1524567176,"iso_country":"ME","golf":"cartpath"}},{"type":"Feature","id":"way/1524567178","geometry":{"type":"Polygon","coordinates":[[[18.65942,42.39529],[18.65881,42.39559],[18.65825,42.39554],[18.65808,42.39538],[18.65823,42.39502],[18.6591,42.39455],[18.65944,42.39478],[18.65958,42.39501],[18.65957,42.39516],[18.65942,42.39529]]]},"properties":{"osm_type":"way","osm_id":1524567178,"iso_country":"ME","golf":"water_hazard"}},{"type":"Feature","id":"way/1548778339","geometry":{"type":"Polygon","coordinates":[[[18.6648,42.3923],[18.66487,42.39234],[18.66496,42.39227],[18.66489,42.39222],[18.6648,42.3923]]]},"properties":{"osm_type":"way","osm_id":1548778339,"iso_country":"ME","golf":"tee"}},{"type":"Feature","id":"way/1548778340","geometry":{"type":"Polygon","coordinates":[[[18.66525,42.39278],[18.66544,42.39265],[18.66554,42.39272],[18.66542,42.3928],[18.66548,42.39285],[18.6654,42.3929],[18.66525,42.39278]]]},"properties":{"osm_type":"way","osm_id":1548778340,"iso_country":"ME","golf":"tee"}},{"type":"Feature","id":"way/1548778341","geometry":{"type":"Polygon","coordinates":[[[18.66494,42.39253],[18.66487,42.39248],[18.665,42.39238],[18.66507,42.39243],[18.66494,42.39253]]]},"properties":{"osm_type":"way","osm_id":1548778341,"iso_country":"ME","golf":"tee"}},{"type":"Feature","id":"way/1548778342","geometry":{"type":"Polygon","coordinates":[[[18.66508,42.39266],[18.66501,42.3926],[18.66515,42.39252],[18.66522,42.39258],[18.66508,42.39266]]]},"properties":{"osm_type":"way","osm_id":1548778342,"iso_country":"ME","golf":"tee"}},{"type":"Feature","id":"way/1548778343","geometry":{"type":"Polygon","coordinates":[[[18.66624,42.39336],[18.66628,42.39344],[18.66644,42.39344],[18.66652,42.39325],[18.66627,42.39321],[18.66624,42.39336]]]},"properties":{"osm_type":"way","osm_id":1548778343,"iso_country":"ME","golf":"green"}},{"type":"Feature","id":"way/1548778459","geometry":{"type":"Polygon","coordinates":[[[18.66153,42.39259],[18.66158,42.39247],[18.66197,42.39258],[18.6619,42.3927],[18.66153,42.39259]]]},"properties":{"osm_type":"way","osm_id":1548778459,"iso_country":"ME","golf":"clubhouse","building":"yes","name":"Luštica Bay Golf Club"}},{"type":"Feature","id":"way/1548781353","geometry":{"type":"LineString","coordinates":[[18.65462,42.39875],[18.65624,42.39784]]},"properties":{"osm_type":"way","osm_id":1548781353,"iso_country":"ME","golf":"hole"}},{"type":"Feature","id":"way/1548781354","geometry":{"type":"Polygon","coordinates":[[[18.65454,42.39874],[18.6546,42.3987],[18.65467,42.39877],[18.65461,42.39881],[18.65454,42.39874]]]},"properties":{"osm_type":"way","osm_id":1548781354,"iso_country":"ME","golf":"tee"}},{"type":"Feature","id":"way/1548781355","geometry":{"type":"Polygon","coordinates":[[[18.65468,42.39867],[18.65475,42.39863],[18.65482,42.39869],[18.65475,42.39873],[18.65468,42.39867]]]},"properties":{"osm_type":"way","osm_id":1548781355,"iso_country":"ME","golf":"tee"}},{"type":"Feature","id":"way/1548781356","geometry":{"type":"Polygon","coordinates":[[[18.65489,42.39854],[18.65496,42.3986],[18.6549,42.39864],[18.65483,42.39858],[18.65489,42.39854]]]},"properties":{"osm_type":"way","osm_id":1548781356,"iso_country":"ME","golf":"tee"}},{"type":"Feature","id":"way/1548781357","geometry":{"type":"Polygon","coordinates":[[[18.65498,42.39843],[18.65494,42.39839],[18.65502,42.39834],[18.65506,42.39838],[18.65498,42.39843]]]},"properties":{"osm_type":"way","osm_id":1548781357,"iso_country":"ME","golf":"tee"}},{"type":"Feature","id":"way/1548781358","geometry":{"type":"Polygon","coordinates":[[[18.65626,42.39792],[18.65647,42.39785],[18.65647,42.39774],[18.65637,42.39769],[18.65597,42.39788],[18.65608,42.39796],[18.65626,42.39792]]]},"properties":{"osm_type":"way","osm_id":1548781358,"iso_country":"ME","golf":"green"}},{"type":"Feature","id":"way/1548781359","geometry":{"type":"Polygon","coordinates":[[[18.65612,42.39799],[18.6563,42.39794],[18.65635,42.398],[18.65599,42.39807],[18.65612,42.39799]]]},"properties":{"osm_type":"way","osm_id":1548781359,"iso_country":"ME","golf":"bunker"}},{"type":"Feature","id":"way/1548781360","geometry":{"type":"Polygon","coordinates":[[[18.6561,42.39779],[18.65608,42.39779],[18.65605,42.39779],[18.65604,42.39777],[18.65605,42.39776],[18.65607,42.39775],[18.65608,42.39773],[18.6561,42.39772],[18.65613,42.39772],[18.65614,42.39773],[18.65614,42.39774],[18.65614,42.39775],[18.65614,42.39776],[18.65612,42.39778],[18.6561,42.39779]]]},"properties":{"osm_type":"way","osm_id":1548781360,"iso_country":"ME","golf":"bunker"}},{"type":"Feature","id":"way/1548781361","geometry":{"type":"Polygon","coordinates":[[[18.65681,42.39732],[18.65668,42.39741],[18.65658,42.39732],[18.65679,42.39709],[18.65689,42.39716],[18.65681,42.39732]]]},"properties":{"osm_type":"way","osm_id":1548781361,"iso_country":"ME","golf":"green"}},{"type":"Feature","id":"way/1548781362","geometry":{"type":"Polygon","coordinates":[[[18.65913,42.39436],[18.65922,42.39429],[18.65932,42.39435],[18.65924,42.39442],[18.65913,42.39436]]]},"properties":{"osm_type":"way","osm_id":1548781362,"iso_country":"ME","golf":"tee"}},{"type":"Feature","id":"way/1548781363","geometry":{"type":"LineString","coordinates":[[18.65922,42.39436],[18.65768,42.39595],[18.65676,42.39725]]},"properties":{"osm_type":"way","osm_id":1548781363,"iso_country":"ME","golf":"hole"}},{"type":"Feature","id":"way/1548781364","geometry":{"type":"Polygon","coordinates":[[[18.65788,42.39523],[18.658,42.39524],[18.65802,42.39512],[18.6579,42.39511],[18.65788,42.39523]]]},"properties":{"osm_type":"way","osm_id":1548781364,"iso_country":"ME","golf":"tee"}},{"type":"Feature","id":"way/1548781365","geometry":{"type":"Polygon","coordinates":[[[18.65852,42.39451],[18.65861,42.39457],[18.65872,42.39447],[18.65863,42.39441],[18.65852,42.39451]]]},"properties":{"osm_type":"way","osm_id":1548781365,"iso_country":"ME","golf":"tee"}},{"type":"Feature","id":"way/1548781366","geometry":{"type":"Polygon","coordinates":[[[18.65829,42.39489],[18.65817,42.39483],[18.65827,42.39473],[18.65838,42.39479],[18.65829,42.39489]]]},"properties":{"osm_type":"way","osm_id":1548781366,"iso_country":"ME","golf":"tee"}},{"type":"Feature","id":"way/1548781367","geometry":{"type":"Polygon","coordinates":[[[18.65609,42.39928],[18.65598,42.39952],[18.65577,42.39955],[18.65588,42.39926],[18.65599,42.39921],[18.65609,42.39928]]]},"properties":{"osm_type":"way","osm_id":1548781367,"iso_country":"ME","golf":"green"}},{"type":"Feature","id":"way/1548781368","geometry":{"type":"Polygon","coordinates":[[[18.66096,42.39681],[18.6609,42.39671],[18.66075,42.39676],[18.66081,42.39686],[18.66096,42.39681]]]},"properties":{"osm_type":"way","osm_id":1548781368,"iso_country":"ME","golf":"tee"}},{"type":"Feature","id":"way/1548781369","geometry":{"type":"LineString","coordinates":[[18.66086,42.3968],[18.65821,42.39767],[18.65637,42.39894],[18.65592,42.3994]]},"properties":{"osm_type":"way","osm_id":1548781369,"iso_country":"ME","golf":"hole"}},{"type":"Feature","id":"way/1548781370","geometry":{"type":"Polygon","coordinates":[[[18.65896,42.39727],[18.65902,42.39736],[18.65916,42.39731],[18.6591,42.39722],[18.65896,42.39727]]]},"properties":{"osm_type":"way","osm_id":1548781370,"iso_country":"ME","golf":"tee"}},{"type":"Feature","id":"way/1548781371","geometry":{"type":"Polygon","coordinates":[[[18.65936,42.39714],[18.65941,42.39722],[18.65949,42.39709],[18.65936,42.39714]]]},"properties":{"osm_type":"way","osm_id":1548781371,"iso_country":"ME","golf":"tee"}},{"type":"Feature","id":"way/1548781372","geometry":{"type":"Polygon","coordinates":[[[18.65983,42.39698],[18.6599,42.39708],[18.66006,42.39702],[18.65999,42.39692],[18.65983,42.39698]]]},"properties":{"osm_type":"way","osm_id":1548781372,"iso_country":"ME","golf":"tee"}},{"type":"Feature","id":"way/1548781373","geometry":{"type":"Polygon","coordinates":[[[18.66036,42.39694],[18.66031,42.39686],[18.66041,42.39682],[18.66046,42.39691],[18.66036,42.39694]]]},"properties":{"osm_type":"way","osm_id":1548781373,"iso_country":"ME","golf":"tee"}},{"type":"Feature","id":"way/1548781440","geometry":{"type":"Polygon","coordinates":[[[18.6591,42.38894],[18.65927,42.38903],[18.6591,42.3891],[18.65886,42.3889],[18.65901,42.38886],[18.6591,42.38894]]]},"properties":{"osm_type":"way","osm_id":1548781440,"iso_country":"ME","golf":"green"}},{"type":"Feature","id":"way/1549035732","geometry":{"type":"Polygon","coordinates":[[[18.66092,42.39075],[18.66086,42.39035],[18.66047,42.39],[18.66014,42.38977],[18.65993,42.38983],[18.65974,42.38975],[18.65977,42.3895],[18.65965,42.38926],[18.65935,42.38916],[18.65915,42.38921],[18.65916,42.38948],[18.65957,42.39],[18.65984,42.39013],[18.66043,42.39069],[18.66077,42.39085],[18.66092,42.39075]]]},"properties":{"osm_type":"way","osm_id":1549035732,"iso_country":"ME","golf":"fairway"}},{"type":"Feature","id":"way/1549035733","geometry":{"type":"Polygon","coordinates":[[[18.66092,42.38993],[18.66161,42.39039],[18.66216,42.39058],[18.66264,42.391],[18.6632,42.39108],[18.66348,42.3913],[18.66384,42.39112],[18.66373,42.39098],[18.66316,42.39076],[18.66188,42.38997],[18.66116,42.38978],[18.66094,42.38983],[18.66092,42.38993]]]},"properties":{"osm_type":"way","osm_id":1549035733,"iso_country":"ME","golf":"fairway"}},{"type":"Feature","id":"way/1549035734","geometry":{"type":"Polygon","coordinates":[[[18.66598,42.3932],[18.66623,42.39308],[18.66631,42.39288],[18.66603,42.39278],[18.66578,42.39286],[18.66574,42.39308],[18.66598,42.3932]]]},"properties":{"osm_type":"way","osm_id":1549035734,"iso_country":"ME","golf":"fairway"}},{"type":"Feature","id":"way/1549035735","geometry":{"type":"Polygon","coordinates":[[[18.65546,42.39814],[18.65591,42.39811],[18.65588,42.39777],[18.65532,42.39795],[18.65523,42.39807],[18.65546,42.39814]]]},"properties":{"osm_type":"way","osm_id":1549035735,"iso_country":"ME","golf":"fairway"}},{"type":"Feature","id":"way/1549206766","geometry":{"type":"Polygon","coordinates":[[[19.46777,42.85865],[19.46776,42.85857],[19.46794,42.85856],[19.46795,42.85864],[19.46777,42.85865]]]},"properties":{"osm_type":"way","osm_id":1549206766,"iso_country":"ME","golf":"tee"}},{"type":"Feature","id":"way/1549206767","geometry":{"type":"Polygon","coordinates":[[[19.46586,42.85966],[19.466,42.85974],[19.46596,42.85984],[19.46568,42.85968],[19.46586,42.85966]]]},"properties":{"osm_type":"way","osm_id":1549206767,"iso_country":"ME","golf":"green"}},{"type":"Feature","id":"way/1549206768","geometry":{"type":"Polygon","coordinates":[[[19.46601,42.85969],[19.46588,42.85957],[19.46608,42.85959],[19.46611,42.85968],[19.46601,42.85969]]]},"properties":{"osm_type":"way","osm_id":1549206768,"iso_country":"ME","golf":"bunker"}},{"type":"Feature","id":"way/1549206769","geometry":{"type":"Polygon","coordinates":[[[19.46598,42.85919],[19.46603,42.85918],[19.46603,42.85915],[19.46601,42.85914],[19.46597,42.85914],[19.46594,42.85916],[19.46592,42.85918],[19.46591,42.8592],[19.46592,42.85922],[19.46594,42.85924],[19.46598,42.85924],[19.46599,42.85923],[19.46599,42.85921],[19.46598,42.85919]]]},"properties":{"osm_type":"way","osm_id":1549206769,"iso_country":"ME","golf":"bunker"}},{"type":"Feature","id":"way/1549206770","geometry":{"type":"LineString","coordinates":[[19.46812,42.85868],[19.46602,42.85886],[19.46586,42.85973]]},"properties":{"osm_type":"way","osm_id":1549206770,"iso_country":"ME","golf":"hole"}},{"type":"Feature","id":"way/1549206771","geometry":{"type":"Polygon","coordinates":[[[19.46739,42.85977],[19.46737,42.85961],[19.46725,42.85962],[19.46726,42.85977],[19.46739,42.85977]]]},"properties":{"osm_type":"way","osm_id":1549206771,"iso_country":"ME","golf":"tee"}},{"type":"Feature","id":"way/1549206772","geometry":{"type":"Polygon","coordinates":[[[19.46743,42.85938],[19.46729,42.85939],[19.46728,42.85925],[19.46742,42.85924],[19.46743,42.85938]]]},"properties":{"osm_type":"way","osm_id":1549206772,"iso_country":"ME","golf":"tee"}},{"type":"Feature","id":"way/1549206773","geometry":{"type":"Polygon","coordinates":[[[19.46672,42.85965],[19.46681,42.85974],[19.46671,42.85978],[19.46652,42.85965],[19.46665,42.85952],[19.46672,42.85965]]]},"properties":{"osm_type":"way","osm_id":1549206773,"iso_country":"ME","golf":"green"}},{"type":"Feature","id":"way/1549206774","geometry":{"type":"Polygon","coordinates":[[[19.46682,42.85965],[19.46677,42.85964],[19.46676,42.85963],[19.46676,42.8596],[19.46677,42.85958],[19.46679,42.85957],[19.46682,42.85957],[19.46685,42.85957],[19.46687,42.85959],[19.46687,42.85962],[19.46686,42.85964],[19.46682,42.85965]]]},"properties":{"osm_type":"way","osm_id":1549206774,"iso_country":"ME","golf":"bunker"}},{"type":"Feature","id":"way/1549206775","geometry":{"type":"Polygon","coordinates":[[[19.46655,42.85985],[19.46652,42.85984],[19.4665,42.85982],[19.46651,42.85979],[19.46652,42.85978],[19.46654,42.85977],[19.46658,42.85977],[19.4666,42.85979],[19.46661,42.85981],[19.4666,42.85984],[19.46655,42.85985]]]},"properties":{"osm_type":"way","osm_id":1549206775,"iso_country":"ME","golf":"bunker"}},{"type":"Feature","id":"way/1549206776","geometry":{"type":"Polygon","coordinates":[[[19.46609,42.86058],[19.46602,42.86047],[19.46611,42.86041],[19.4663,42.86056],[19.46625,42.86064],[19.46609,42.86058]]]},"properties":{"osm_type":"way","osm_id":1549206776,"iso_country":"ME","golf":"tee"}},{"type":"Feature","id":"way/1549206777","geometry":{"type":"Polygon","coordinates":[[[19.46603,42.86057],[19.46609,42.86063],[19.46602,42.86067],[19.46579,42.86056],[19.46592,42.86047],[19.46603,42.86057]]]},"properties":{"osm_type":"way","osm_id":1549206777,"iso_country":"ME","golf":"bunker"}},{"type":"Feature","id":"way/1549206778","geometry":{"type":"Polygon","coordinates":[[[19.46804,42.85956],[19.46818,42.85961],[19.46826,42.85955],[19.46799,42.85942],[19.46793,42.85951],[19.46804,42.85956]]]},"properties":{"osm_type":"way","osm_id":1549206778,"iso_country":"ME","golf":"green"}},{"type":"Feature","id":"way/1549206779","geometry":{"type":"Polygon","coordinates":[[[19.46808,42.85984],[19.46796,42.86],[19.46795,42.85989],[19.46808,42.85984]]]},"properties":{"osm_type":"way","osm_id":1549206779,"iso_country":"ME","golf":"bunker"}},{"type":"Feature","id":"way/1549206780","geometry":{"type":"Polygon","coordinates":[[[19.468,42.85963],[19.46797,42.85965],[19.46794,42.85966],[19.46791,42.85965],[19.4679,42.85962],[19.4679,42.8596],[19.46792,42.85958],[19.46794,42.85957],[19.46798,42.85957],[19.46802,42.85959],[19.468,42.85963]]]},"properties":{"osm_type":"way","osm_id":1549206780,"iso_country":"ME","golf":"bunker"}},{"type":"Feature","id":"way/1549206781","geometry":{"type":"Polygon","coordinates":[[[19.46796,42.86144],[19.46793,42.86143],[19.46792,42.8614],[19.46792,42.86137],[19.46796,42.86136],[19.46798,42.86136],[19.46799,42.86139],[19.46801,42.86141],[19.46801,42.86143],[19.46796,42.86144]]]},"properties":{"osm_type":"way","osm_id":1549206781,"iso_country":"ME","golf":"bunker"}},{"type":"Feature","id":"way/1549206782","geometry":{"type":"Polygon","coordinates":[[[19.46766,42.8614],[19.46757,42.86142],[19.46758,42.86131],[19.46769,42.8613],[19.46766,42.8614]]]},"properties":{"osm_type":"way","osm_id":1549206782,"iso_country":"ME","golf":"bunker"}},{"type":"Feature","id":"way/1549206783","geometry":{"type":"Polygon","coordinates":[[[19.4679,42.86118],[19.46781,42.86115],[19.46788,42.86102],[19.4679,42.86118]]]},"properties":{"osm_type":"way","osm_id":1549206783,"iso_country":"ME","golf":"bunker"}},{"type":"Feature","id":"way/1549206784","geometry":{"type":"Polygon","coordinates":[[[19.46786,42.86137],[19.46791,42.86154],[19.46768,42.86154],[19.46772,42.86136],[19.46786,42.86137]]]},"properties":{"osm_type":"way","osm_id":1549206784,"iso_country":"ME","golf":"green"}},{"type":"Feature","id":"way/1549206785","geometry":{"type":"Polygon","coordinates":[[[19.46653,42.8622],[19.46655,42.86231],[19.46644,42.86234],[19.46644,42.86219],[19.46653,42.8622]]]},"properties":{"osm_type":"way","osm_id":1549206785,"iso_country":"ME","golf":"bunker"}},{"type":"Feature","id":"way/1549206786","geometry":{"type":"Polygon","coordinates":[[[19.4668,42.8622],[19.46683,42.86231],[19.46667,42.86233],[19.46658,42.86213],[19.46672,42.86211],[19.4668,42.8622]]]},"properties":{"osm_type":"way","osm_id":1549206786,"iso_country":"ME","golf":"green"}},{"type":"Feature","id":"way/1549206787","geometry":{"type":"Polygon","coordinates":[[[19.46642,42.86227],[19.46641,42.86235],[19.46624,42.86235],[19.46618,42.86222],[19.46639,42.86217],[19.46642,42.86227]]]},"properties":{"osm_type":"way","osm_id":1549206787,"iso_country":"ME","golf":"green"}},{"type":"Feature","id":"way/1549206788","geometry":{"type":"LineString","coordinates":[[19.46735,42.8593],[19.46749,42.86004],[19.46767,42.86113],[19.46779,42.86148]]},"properties":{"osm_type":"way","osm_id":1549206788,"iso_country":"ME","golf":"hole"}},{"type":"Feature","id":"way/1549206789","geometry":{"type":"Polygon","coordinates":[[[19.46855,42.86156],[19.46849,42.86156],[19.4685,42.86162],[19.46856,42.86161],[19.46855,42.86156]]]},"properties":{"osm_type":"way","osm_id":1549206789,"iso_country":"ME","golf":"tee"}},{"type":"Feature","id":"way/1549206790","geometry":{"type":"Polygon","coordinates":[[[19.46846,42.86179],[19.46853,42.86178],[19.46854,42.86185],[19.46847,42.86186],[19.46846,42.86179]]]},"properties":{"osm_type":"way","osm_id":1549206790,"iso_country":"ME","golf":"tee"}},{"type":"Feature","id":"way/1549206791","geometry":{"type":"LineString","coordinates":[[19.4685,42.86182],[19.46827,42.86018],[19.4681,42.85952]]},"properties":{"osm_type":"way","osm_id":1549206791,"iso_country":"ME","golf":"hole"}},{"type":"Feature","id":"way/1549206792","geometry":{"type":"Polygon","coordinates":[[[19.46603,42.86081],[19.46592,42.86083],[19.46601,42.86109],[19.46613,42.86107],[19.46603,42.86081]]]},"properties":{"osm_type":"way","osm_id":1549206792,"iso_country":"ME","golf":"tee"}},{"type":"Feature","id":"way/1549206793","geometry":{"type":"LineString","coordinates":[[19.46599,42.86087],[19.46627,42.86179]]},"properties":{"osm_type":"way","osm_id":1549206793,"iso_country":"ME","golf":"hole"}},{"type":"Feature","id":"way/1549206794","geometry":{"type":"Polygon","coordinates":[[[19.4635,42.85993],[19.46347,42.85999],[19.46336,42.85997],[19.46338,42.85991],[19.4635,42.85993]]]},"properties":{"osm_type":"way","osm_id":1549206794,"iso_country":"ME","golf":"tee"}},{"type":"Feature","id":"way/1549206795","geometry":{"type":"Polygon","coordinates":[[[19.46382,42.86009],[19.4638,42.86014],[19.4639,42.86016],[19.46391,42.8601],[19.46382,42.86009]]]},"properties":{"osm_type":"way","osm_id":1549206795,"iso_country":"ME","golf":"tee"}},{"type":"Feature","id":"way/1549206796","geometry":{"type":"LineString","coordinates":[[19.46343,42.85995],[19.46588,42.86033],[19.46614,42.86052]]},"properties":{"osm_type":"way","osm_id":1549206796,"iso_country":"ME","golf":"hole"}},{"type":"Feature","id":"way/1549206797","geometry":{"type":"Polygon","coordinates":[[[19.46803,42.85872],[19.46805,42.85864],[19.4682,42.85866],[19.46818,42.85874],[19.46803,42.85872]]]},"properties":{"osm_type":"way","osm_id":1549206797,"iso_country":"ME","golf":"tee"}},{"type":"Feature","id":"way/1549206798","geometry":{"type":"Polygon","coordinates":[[[19.47193,42.86164],[19.47201,42.86169],[19.47193,42.86179],[19.47167,42.86179],[19.47193,42.86164]]]},"properties":{"osm_type":"way","osm_id":1549206798,"iso_country":"ME","golf":"green"}},{"type":"Feature","id":"way/1549206799","geometry":{"type":"Polygon","coordinates":[[[19.46832,42.86217],[19.46832,42.86212],[19.46843,42.86212],[19.46843,42.86217],[19.46832,42.86217]]]},"properties":{"osm_type":"way","osm_id":1549206799,"iso_country":"ME","golf":"tee"}},{"type":"Feature","id":"way/1549206800","geometry":{"type":"Polygon","coordinates":[[[19.46899,42.86209],[19.46899,42.86203],[19.46913,42.86202],[19.46913,42.86209],[19.46899,42.86209]]]},"properties":{"osm_type":"way","osm_id":1549206800,"iso_country":"ME","golf":"tee"}},{"type":"Feature","id":"way/1549206801","geometry":{"type":"LineString","coordinates":[[19.46838,42.86214],[19.47125,42.86186],[19.47185,42.86173]]},"properties":{"osm_type":"way","osm_id":1549206801,"iso_country":"ME","golf":"hole"}},{"type":"Feature","id":"way/1549206802","geometry":{"type":"Polygon","coordinates":[[[19.46964,42.8593],[19.4694,42.85921],[19.46965,42.85915],[19.46974,42.85926],[19.46964,42.8593]]]},"properties":{"osm_type":"way","osm_id":1549206802,"iso_country":"ME","golf":"green"}},{"type":"Feature","id":"way/1549206803","geometry":{"type":"Polygon","coordinates":[[[19.46919,42.86133],[19.46926,42.86142],[19.46919,42.86152],[19.46899,42.86152],[19.46899,42.86143],[19.46919,42.86133]]]},"properties":{"osm_type":"way","osm_id":1549206803,"iso_country":"ME","golf":"green"}},{"type":"Feature","id":"way/1549206804","geometry":{"type":"Polygon","coordinates":[[[19.46893,42.85996],[19.46901,42.85997],[19.46904,42.85989],[19.46896,42.85987],[19.46893,42.85996]]]},"properties":{"osm_type":"way","osm_id":1549206804,"iso_country":"ME","golf":"tee"}},{"type":"Feature","id":"way/1549206805","geometry":{"type":"Polygon","coordinates":[[[19.46902,42.8597],[19.46909,42.85972],[19.46905,42.85978],[19.46899,42.85977],[19.46902,42.8597]]]},"properties":{"osm_type":"way","osm_id":1549206805,"iso_country":"ME","golf":"tee"}},{"type":"Feature","id":"way/1549206806","geometry":{"type":"LineString","coordinates":[[19.46904,42.85974],[19.46911,42.86143]]},"properties":{"osm_type":"way","osm_id":1549206806,"iso_country":"ME","golf":"hole"}},{"type":"Feature","id":"way/1549206807","geometry":{"type":"Polygon","coordinates":[[[19.46691,42.8623],[19.46692,42.8622],[19.46701,42.8622],[19.46701,42.8623],[19.46691,42.8623]]]},"properties":{"osm_type":"way","osm_id":1549206807,"iso_country":"ME","golf":"tee"}},{"type":"Feature","id":"way/1549206808","geometry":{"type":"LineString","coordinates":[[19.46696,42.86224],[19.46668,42.8603],[19.46665,42.85967]]},"properties":{"osm_type":"way","osm_id":1549206808,"iso_country":"ME","golf":"hole"}},{"type":"Feature","id":"way/1549206809","geometry":{"type":"Polygon","coordinates":[[[19.47256,42.86162],[19.47264,42.86157],[19.47273,42.86163],[19.47264,42.86169],[19.47256,42.86162]]]},"properties":{"osm_type":"way","osm_id":1549206809,"iso_country":"ME","golf":"tee"}},{"type":"Feature","id":"way/1549206810","geometry":{"type":"Polygon","coordinates":[[[19.47245,42.86153],[19.4725,42.86147],[19.47241,42.86142],[19.47235,42.86149],[19.47245,42.86153]]]},"properties":{"osm_type":"way","osm_id":1549206810,"iso_country":"ME","golf":"tee"}},{"type":"Feature","id":"way/1549206811","geometry":{"type":"LineString","coordinates":[[19.47265,42.86162],[19.46993,42.861],[19.46963,42.85943],[19.46959,42.85922]]},"properties":{"osm_type":"way","osm_id":1549206811,"iso_country":"ME","golf":"hole"}},{"type":"Feature","id":"way/1549206812","geometry":{"type":"Polygon","coordinates":[[[19.46671,42.86145],[19.46659,42.86143],[19.46649,42.86126],[19.46659,42.8609],[19.46692,42.86106],[19.4669,42.86139],[19.46671,42.86145]]]},"properties":{"osm_type":"way","osm_id":1549206812,"iso_country":"ME","golf":"fairway"}},{"type":"Feature","id":"way/1549206813","geometry":{"type":"Polygon","coordinates":[[[19.46667,42.86065],[19.46683,42.86065],[19.46689,42.86054],[19.46678,42.85986],[19.46659,42.8599],[19.46658,42.86003],[19.46643,42.86012],[19.46655,42.8606],[19.46667,42.86065]]]},"properties":{"osm_type":"way","osm_id":1549206813,"iso_country":"ME","golf":"fairway"}},{"type":"Feature","id":"way/1549206814","geometry":{"type":"Polygon","coordinates":[[[19.46735,42.86014],[19.46741,42.86004],[19.4676,42.86004],[19.46776,42.86038],[19.46771,42.8607],[19.46746,42.86073],[19.46735,42.86014]]]},"properties":{"osm_type":"way","osm_id":1549206814,"iso_country":"ME","golf":"fairway"}},{"type":"Feature","id":"way/1549206815","geometry":{"type":"Polygon","coordinates":[[[19.46774,42.86092],[19.46785,42.86098],[19.46775,42.8611],[19.46788,42.8613],[19.46758,42.86118],[19.46762,42.86098],[19.46774,42.86092]]]},"properties":{"osm_type":"way","osm_id":1549206815,"iso_country":"ME","golf":"fairway"}},{"type":"Feature","id":"way/1549206816","geometry":{"type":"Polygon","coordinates":[[[19.46807,42.86055],[19.46831,42.86061],[19.46848,42.86052],[19.46847,42.86],[19.46826,42.8597],[19.46808,42.85973],[19.46813,42.85993],[19.46799,42.86015],[19.46807,42.86055]]]},"properties":{"osm_type":"way","osm_id":1549206816,"iso_country":"ME","golf":"fairway"}},{"type":"Feature","id":"way/1549206817","geometry":{"type":"Polygon","coordinates":[[[19.46919,42.8606],[19.46936,42.8607],[19.46937,42.8612],[19.46904,42.86127],[19.46898,42.86067],[19.46919,42.8606]]]},"properties":{"osm_type":"way","osm_id":1549206817,"iso_country":"ME","golf":"fairway"}},{"type":"Feature","id":"way/1549206818","geometry":{"type":"Polygon","coordinates":[[[19.47115,42.86139],[19.47119,42.86116],[19.47019,42.86097],[19.47004,42.86083],[19.46992,42.85968],[19.46951,42.85967],[19.46936,42.85978],[19.46976,42.86123],[19.47115,42.86139]]]},"properties":{"osm_type":"way","osm_id":1549206818,"iso_country":"ME","golf":"fairway"}},{"type":"Feature","id":"way/1549206819","geometry":{"type":"Polygon","coordinates":[[[19.467,42.85861],[19.46713,42.85869],[19.46705,42.85887],[19.46611,42.85899],[19.46588,42.85921],[19.46602,42.85937],[19.46596,42.8595],[19.46578,42.85953],[19.46567,42.85945],[19.46577,42.85879],[19.467,42.85861]]]},"properties":{"osm_type":"way","osm_id":1549206819,"iso_country":"ME","golf":"fairway"}},{"type":"Feature","id":"way/1549206820","geometry":{"type":"Polygon","coordinates":[[[19.4648,42.86035],[19.46454,42.86034],[19.46447,42.8602],[19.4646,42.86009],[19.46484,42.86012],[19.4648,42.86035]]]},"properties":{"osm_type":"way","osm_id":1549206820,"iso_country":"ME","golf":"fairway"}},{"type":"Feature","id":"way/1549206821","geometry":{"type":"Polygon","coordinates":[[[19.4652,42.86046],[19.46508,42.86034],[19.46514,42.8602],[19.46577,42.86027],[19.46601,42.86038],[19.46572,42.86054],[19.4652,42.86046]]]},"properties":{"osm_type":"way","osm_id":1549206821,"iso_country":"ME","golf":"fairway"}},{"type":"Feature","id":"way/1549206822","geometry":{"type":"Polygon","coordinates":[[[19.46599,42.86147],[19.466,42.86139],[19.46617,42.86133],[19.46632,42.86158],[19.46609,42.86164],[19.46599,42.86147]]]},"properties":{"osm_type":"way","osm_id":1549206822,"iso_country":"ME","golf":"fairway"}},{"type":"Feature","id":"way/1549206823","geometry":{"type":"Polygon","coordinates":[[[19.4663,42.86165],[19.4663,42.86168],[19.4663,42.8617],[19.46627,42.86171],[19.46622,42.86172],[19.46617,42.86172],[19.46614,42.86173],[19.46611,42.86172],[19.46609,42.86171],[19.46609,42.86169],[19.4661,42.86168],[19.46613,42.86168],[19.46617,42.86168],[19.46619,42.86167],[19.4662,42.86166],[19.46621,42.86165],[19.46624,42.86163],[19.46627,42.86163],[19.46628,42.86164],[19.4663,42.86165]]]},"properties":{"osm_type":"way","osm_id":1549206823,"iso_country":"ME","golf":"bunker"}},{"type":"Feature","id":"way/1549206824","geometry":{"type":"Polygon","coordinates":[[[19.46638,42.86172],[19.46635,42.86184],[19.46613,42.86181],[19.46638,42.86172]]]},"properties":{"osm_type":"way","osm_id":1549206824,"iso_country":"ME","golf":"green"}},{"type":"Feature","id":"way/1549206825","geometry":{"type":"Polygon","coordinates":[[[19.47104,42.86194],[19.47162,42.86192],[19.47161,42.86173],[19.47146,42.86167],[19.47108,42.86175],[19.47098,42.86179],[19.47104,42.86194]]]},"properties":{"osm_type":"way","osm_id":1549206825,"iso_country":"ME","golf":"fairway"}},{"type":"Feature","id":"way/1549206826","geometry":{"type":"Polygon","coordinates":[[[19.46955,42.8621],[19.47039,42.86207],[19.47075,42.86197],[19.47077,42.86188],[19.47022,42.86181],[19.46976,42.86187],[19.46957,42.86197],[19.46955,42.8621]]]},"properties":{"osm_type":"way","osm_id":1549206826,"iso_country":"ME","golf":"fairway"}},{"type":"Feature","id":"way/1549207382","geometry":{"type":"Polygon","coordinates":[[[19.46544,42.86271],[19.46542,42.86264],[19.46586,42.86257],[19.46588,42.86264],[19.46544,42.86271]]]},"properties":{"osm_type":"way","osm_id":1549207382,"iso_country":"ME","golf":"tee"}},{"type":"Feature","id":"way/1549207383","geometry":{"type":"Polygon","coordinates":[[[19.46607,42.8625],[19.46561,42.86074],[19.46543,42.86063],[19.46507,42.86073],[19.46493,42.86093],[19.465,42.86208],[19.46524,42.86214],[19.46537,42.86262],[19.46607,42.8625]]]},"properties":{"osm_type":"way","osm_id":1549207383,"iso_country":"ME","golf":"driving_range"}},{"type":"Feature","id":"way/1549207384","geometry":{"type":"Polygon","coordinates":[[[19.46479,42.86289],[19.46477,42.8628],[19.46515,42.86275],[19.46517,42.86284],[19.46479,42.86289]]]},"properties":{"osm_type":"way","osm_id":1549207384,"iso_country":"ME","golf":"clubhouse","building":"yes","name":"Golf klub Brskovo"}},{"type":"Feature","id":"way/1549208250","geometry":{"type":"Polygon","coordinates":[[[19.46612,42.8629],[19.46542,42.86282],[19.46474,42.86291],[19.46492,42.86193],[19.46482,42.86082],[19.465,42.86061],[19.46452,42.86053],[19.46415,42.86029],[19.46325,42.85999],[19.4635,42.85974],[19.46558,42.85962],[19.46562,42.85954],[19.46533,42.8593],[19.46503,42.85871],[19.46783,42.85844],[19.46942,42.85902],[19.47013,42.85908],[19.47006,42.85955],[19.47036,42.85968],[19.47038,42.86083],[19.47245,42.86135],[19.47264,42.86143],[19.473,42.8619],[19.47325,42.86207],[19.47313,42.86218],[19.47255,42.86227],[19.4715,42.8623],[19.46874,42.86275],[19.46813,42.86258],[19.46783,42.8623],[19.46716,42.86237],[19.46669,42.86268],[19.46612,42.8629]]]},"properties":{"osm_type":"way","osm_id":1549208250,"iso_country":"ME","leisure":"golf_course","name":"Golf klub Brskovo"}},{"type":"Feature","id":"way/1549208251","geometry":{"type":"Polygon","coordinates":[[[19.46682,42.85938],[19.4665,42.85939],[19.46634,42.85957],[19.46614,42.85956],[19.46649,42.85931],[19.46681,42.8593],[19.46682,42.85938]]]},"properties":{"osm_type":"way","osm_id":1549208251,"iso_country":"ME","golf":"water_hazard"}},{"type":"Feature","id":"way/1549208252","geometry":{"type":"Polygon","coordinates":[[[19.46802,42.86087],[19.46813,42.86088],[19.46799,42.86077],[19.46768,42.86078],[19.46757,42.86081],[19.46745,42.86105],[19.46729,42.86105],[19.46678,42.86075],[19.46653,42.8607],[19.46641,42.86031],[19.46608,42.86012],[19.46523,42.85996],[19.46506,42.85999],[19.46496,42.86014],[19.46511,42.86056],[19.46502,42.86026],[19.46511,42.86014],[19.46576,42.86011],[19.46628,42.86027],[19.46639,42.8605],[19.46639,42.86073],[19.46622,42.8608],[19.46615,42.86096],[19.46635,42.8611],[19.46655,42.86081],[19.4673,42.86109],[19.46753,42.86108],[19.46773,42.86085],[19.46802,42.86087]]]},"properties":{"osm_type":"way","osm_id":1549208252,"iso_country":"ME","golf":"water_hazard"}},{"type":"Feature","id":"way/1549208253","geometry":{"type":"Polygon","coordinates":[[[19.46873,42.8615],[19.4683,42.86158],[19.46837,42.86136],[19.46827,42.86094],[19.4685,42.86066],[19.46875,42.86068],[19.46891,42.86088],[19.46873,42.8615]]]},"properties":{"osm_type":"way","osm_id":1549208253,"iso_country":"ME","golf":"water_hazard"}},{"type":"Feature","id":"way/1549266375","geometry":{"type":"Polygon","coordinates":[[[18.66479,42.39197],[18.66757,42.39328],[18.66532,42.39461],[18.66333,42.39507],[18.66473,42.39627],[18.66369,42.39662],[18.66328,42.39641],[18.66118,42.39687],[18.65855,42.3979],[18.65903,42.39885],[18.65906,42.3991],[18.65613,42.40003],[18.6557,42.40038],[18.65195,42.40167],[18.65033,42.40259],[18.64642,42.39968],[18.64491,42.39963],[18.6419,42.39869],[18.6413,42.39481],[18.64051,42.39215],[18.64125,42.39178],[18.64064,42.39044],[18.64063,42.38971],[18.64114,42.38962],[18.64222,42.38865],[18.64416,42.3875],[18.64797,42.38592],[18.64834,42.38685],[18.64912,42.38687],[18.65163,42.38841],[18.65974,42.38842],[18.66345,42.3904],[18.66447,42.3914],[18.66479,42.39197]]]},"properties":{"osm_type":"way","osm_id":1549266375,"iso_country":"ME","leisure":"golf_course","name":"Luštica Bay Golf Course"}},{"type":"Feature","id":"way/1549269365","geometry":{"type":"LineString","coordinates":[[18.65568,42.39917],[18.65546,42.39931],[18.65518,42.39934],[18.65507,42.39909],[18.65453,42.39912],[18.65456,42.39888],[18.65446,42.39874],[18.65528,42.39795],[18.65614,42.39752],[18.65638,42.39701],[18.65678,42.39668],[18.65797,42.39495],[18.65847,42.39448]]},"properties":{"osm_type":"way","osm_id":1549269365,"iso_country":"ME","golf":"cartpath"}},{"type":"Feature","id":"way/1549434046","geometry":{"type":"Polygon","coordinates":[[[18.66591,42.3941],[18.66587,42.39403],[18.666,42.394],[18.66603,42.39407],[18.66591,42.3941]]]},"properties":{"osm_type":"way","osm_id":1549434046,"iso_country":"ME","golf":"tee"}},{"type":"Feature","id":"way/1549434047","geometry":{"type":"Polygon","coordinates":[[[18.66489,42.39413],[18.66485,42.39408],[18.66495,42.39404],[18.66499,42.39409],[18.66489,42.39413]]]},"properties":{"osm_type":"way","osm_id":1549434047,"iso_country":"ME","golf":"tee"}},{"type":"Feature","id":"way/1549434048","geometry":{"type":"Polygon","coordinates":[[[18.66539,42.39406],[18.66536,42.394],[18.66545,42.39397],[18.66548,42.39403],[18.66539,42.39406]]]},"properties":{"osm_type":"way","osm_id":1549434048,"iso_country":"ME","golf":"tee"}},{"type":"Feature","id":"way/1549434049","geometry":{"type":"LineString","coordinates":[[18.66596,42.39405],[18.663,42.39459],[18.66172,42.39585]]},"properties":{"osm_type":"way","osm_id":1549434049,"iso_country":"ME","golf":"hole"}},{"type":"Feature","id":"way/1549434051","geometry":{"type":"Polygon","coordinates":[[[18.65687,42.3898],[18.65696,42.38977],[18.65689,42.38966],[18.6568,42.38969],[18.65687,42.3898]]]},"properties":{"osm_type":"way","osm_id":1549434051,"iso_country":"ME","golf":"tee"}},{"type":"Feature","id":"way/1549434052","geometry":{"type":"Polygon","coordinates":[[[18.65697,42.39002],[18.65705,42.39017],[18.65717,42.39014],[18.65708,42.38999],[18.65697,42.39002]]]},"properties":{"osm_type":"way","osm_id":1549434052,"iso_country":"ME","golf":"tee"}},{"type":"Feature","id":"way/1549434053","geometry":{"type":"Polygon","coordinates":[[[18.65709,42.39036],[18.65721,42.39032],[18.6573,42.39052],[18.65718,42.39055],[18.65709,42.39036]]]},"properties":{"osm_type":"way","osm_id":1549434053,"iso_country":"ME","golf":"tee"}},{"type":"Feature","id":"way/1549434054","geometry":{"type":"Polygon","coordinates":[[[18.65741,42.39098],[18.65749,42.39093],[18.65735,42.39082],[18.65727,42.39087],[18.65741,42.39098]]]},"properties":{"osm_type":"way","osm_id":1549434054,"iso_country":"ME","golf":"tee"}},{"type":"Feature","id":"way/1549434055","geometry":{"type":"LineString","coordinates":[[18.65687,42.38972],[18.65829,42.39158],[18.65987,42.39241]]},"properties":{"osm_type":"way","osm_id":1549434055,"iso_country":"ME","golf":"hole"}},{"type":"Feature","id":"way/1549434057","geometry":{"type":"Polygon","coordinates":[[[18.65662,42.39581],[18.65653,42.39578],[18.6566,42.39568],[18.65669,42.39572],[18.65662,42.39581]]]},"properties":{"osm_type":"way","osm_id":1549434057,"iso_country":"ME","golf":"tee"}},{"type":"Feature","id":"way/1549434058","geometry":{"type":"Polygon","coordinates":[[[18.65719,42.39506],[18.65725,42.39497],[18.65715,42.39494],[18.65709,42.39503],[18.65719,42.39506]]]},"properties":{"osm_type":"way","osm_id":1549434058,"iso_country":"ME","golf":"tee"}},{"type":"Feature","id":"way/1549434059","geometry":{"type":"Polygon","coordinates":[[[18.65706,42.39523],[18.65696,42.3952],[18.6569,42.39529],[18.65701,42.39532],[18.65706,42.39523]]]},"properties":{"osm_type":"way","osm_id":1549434059,"iso_country":"ME","golf":"tee"}},{"type":"Feature","id":"way/1549434060","geometry":{"type":"Polygon","coordinates":[[[18.65691,42.39544],[18.65681,42.39541],[18.65675,42.39551],[18.65684,42.39554],[18.65691,42.39544]]]},"properties":{"osm_type":"way","osm_id":1549434060,"iso_country":"ME","golf":"tee"}},{"type":"Feature","id":"way/1549434061","geometry":{"type":"LineString","coordinates":[[18.6566,42.39575],[18.65849,42.39384],[18.65965,42.39338]]},"properties":{"osm_type":"way","osm_id":1549434061,"iso_country":"ME","golf":"hole"}},{"type":"Feature","id":"way/1549448895","geometry":{"type":"Polygon","coordinates":[[[18.65982,42.39252],[18.65999,42.39261],[18.66001,42.39235],[18.65969,42.39225],[18.65964,42.39233],[18.65982,42.39252]]]},"properties":{"osm_type":"way","osm_id":1549448895,"iso_country":"ME","golf":"green"}},{"type":"Feature","id":"way/1549448896","geometry":{"type":"Polygon","coordinates":[[[18.65778,42.39148],[18.65752,42.39087],[18.65782,42.39083],[18.65896,42.39152],[18.65917,42.39188],[18.65966,42.392],[18.65971,42.39213],[18.65938,42.39238],[18.6592,42.39238],[18.65827,42.39197],[18.65788,42.39167],[18.65778,42.39148]]]},"properties":{"osm_type":"way","osm_id":1549448896,"iso_country":"ME","golf":"fairway"}},{"type":"Feature","id":"way/1549448897","geometry":{"type":"Polygon","coordinates":[[[18.6596,42.39345],[18.65976,42.39346],[18.65985,42.39337],[18.65946,42.3933],[18.65938,42.39342],[18.6596,42.39345]]]},"properties":{"osm_type":"way","osm_id":1549448897,"iso_country":"ME","golf":"green"}},{"type":"Feature","id":"way/1549448898","geometry":{"type":"Polygon","coordinates":[[[18.65958,42.39352],[18.65963,42.39353],[18.65968,42.39352],[18.65971,42.39349],[18.65969,42.39348],[18.65965,42.39347],[18.65958,42.39347],[18.65953,42.39348],[18.6595,42.39349],[18.65952,42.39352],[18.65958,42.39352]]]},"properties":{"osm_type":"way","osm_id":1549448898,"iso_country":"ME","golf":"bunker"}},{"type":"Feature","id":"way/1549448899","geometry":{"type":"Polygon","coordinates":[[[18.65849,42.39361],[18.65843,42.39363],[18.65838,42.39363],[18.65834,42.39362],[18.65831,42.3936],[18.65834,42.39357],[18.65839,42.39354],[18.65843,42.39354],[18.65849,42.39355],[18.65851,42.39357],[18.65849,42.39361]]]},"properties":{"osm_type":"way","osm_id":1549448899,"iso_country":"ME","golf":"bunker"}},{"type":"Feature","id":"way/1549448900","geometry":{"type":"Polygon","coordinates":[[[18.65825,42.39403],[18.65838,42.39408],[18.6582,42.3941],[18.65825,42.39403]]]},"properties":{"osm_type":"way","osm_id":1549448900,"iso_country":"ME","golf":"bunker"}},{"type":"Feature","id":"way/1549448901","geometry":{"type":"Polygon","coordinates":[[[18.65721,42.39488],[18.6576,42.3948],[18.65806,42.39442],[18.65814,42.39401],[18.65864,42.394],[18.65903,42.39387],[18.65934,42.39365],[18.65933,42.39357],[18.65916,42.39337],[18.65895,42.39334],[18.65868,42.39341],[18.65856,42.39362],[18.65783,42.39377],[18.65703,42.39489],[18.65721,42.39488]]]},"properties":{"osm_type":"way","osm_id":1549448901,"iso_country":"ME","golf":"fairway"}},{"type":"Feature","id":"way/1549448902","geometry":{"type":"Polygon","coordinates":[[[18.6617,42.39598],[18.66153,42.39596],[18.66151,42.39587],[18.66181,42.39571],[18.66196,42.39574],[18.6617,42.39598]]]},"properties":{"osm_type":"way","osm_id":1549448902,"iso_country":"ME","golf":"green"}},{"type":"Feature","id":"way/1549448903","geometry":{"type":"Polygon","coordinates":[[[18.66156,42.39581],[18.66159,42.39581],[18.66161,42.3958],[18.66165,42.3958],[18.66168,42.39579],[18.66171,42.39577],[18.66172,42.39576],[18.66171,42.39574],[18.6617,42.39573],[18.66166,42.39573],[18.66163,42.39573],[18.66159,42.39575],[18.66157,42.39576],[18.66155,42.39577],[18.66156,42.39581]]]},"properties":{"osm_type":"way","osm_id":1549448903,"iso_country":"ME","golf":"bunker"}},{"type":"Feature","id":"way/1549448904","geometry":{"type":"Polygon","coordinates":[[[18.66193,42.39589],[18.66184,42.39589],[18.66199,42.39579],[18.66193,42.39589]]]},"properties":{"osm_type":"way","osm_id":1549448904,"iso_country":"ME","golf":"bunker"}},{"type":"Feature","id":"way/1549773015","geometry":{"type":"Polygon","coordinates":[[[19.46696,42.86167],[19.46702,42.86183],[19.46681,42.86186],[19.46636,42.86122],[19.46656,42.86146],[19.46689,42.8615],[19.46696,42.86167]]]},"properties":{"osm_type":"way","osm_id":1549773015,"iso_country":"ME","golf":"water_hazard"}},{"type":"Feature","id":"way/1549773019","geometry":{"type":"LineString","coordinates":[[19.46494,42.86219],[19.46488,42.86079],[19.46508,42.86066],[19.46549,42.8606],[19.46568,42.86071],[19.46609,42.86234],[19.46633,42.86244],[19.46705,42.86234]]},"properties":{"osm_type":"way","osm_id":1549773019,"iso_country":"ME","golf":"cartpath"}},{"type":"Feature","id":"way/1549773020","geometry":{"type":"LineString","coordinates":[[19.46705,42.86234],[19.46707,42.86171],[19.4679,42.86166],[19.46822,42.86153],[19.4683,42.8614],[19.46822,42.86087],[19.46797,42.86063],[19.46786,42.85972],[19.46768,42.85928],[19.46772,42.85896],[19.46799,42.85864],[19.46795,42.85852],[19.46754,42.85848],[19.46549,42.8587],[19.46523,42.85886],[19.46567,42.85958],[19.46562,42.85965],[19.46371,42.8598],[19.46377,42.85997],[19.46452,42.86047],[19.46494,42.86051],[19.46508,42.86066]]},"properties":{"osm_type":"way","osm_id":1549773020,"iso_country":"ME","golf":"cartpath"}},{"type":"Feature","id":"way/1549773765","geometry":{"type":"LineString","coordinates":[[19.46707,42.86171],[19.46699,42.86117],[19.4671,42.86093],[19.46698,42.85978],[19.4671,42.85965],[19.4672,42.85971],[19.46737,42.86066],[19.46731,42.86098],[19.46749,42.86169]]},"properties":{"osm_type":"way","osm_id":1549773765,"iso_country":"ME","golf":"cartpath"}},{"type":"Feature","id":"way/1549773766","geometry":{"type":"LineString","coordinates":[[19.46822,42.86153],[19.46843,42.86203],[19.46786,42.86213],[19.46789,42.86231],[19.46923,42.8624]]},"properties":{"osm_type":"way","osm_id":1549773766,"iso_country":"ME","golf":"cartpath"}},{"type":"Feature","id":"way/1549773767","geometry":{"type":"LineString","coordinates":[[19.46843,42.86203],[19.46989,42.86171],[19.47068,42.86177],[19.47217,42.86149],[19.47215,42.86135],[19.47038,42.86088],[19.47023,42.86081],[19.47021,42.86069]]},"properties":{"osm_type":"way","osm_id":1549773767,"iso_country":"ME","golf":"cartpath"}},{"type":"Feature","id":"way/1549773768","geometry":{"type":"LineString","coordinates":[[19.46832,42.86167],[19.46867,42.86161],[19.46888,42.86138],[19.46895,42.86088],[19.46882,42.8606],[19.46885,42.85995],[19.46901,42.85956]]},"properties":{"osm_type":"way","osm_id":1549773768,"iso_country":"ME","golf":"cartpath"}}]}